P/2019 GG21 (PANSTARRS),e,6.0857,340.5626,208.5897,7.468484,0.0482898,0.47168547,94.8563,09/24.0/2024,2000,g 12.0,4.0
# From MPEC 2022-M21
C/2019 H1 (NEOWISE),e,104.3710,269.3069,19.2778,235.0159,0.0002736,0.99216433,0.0000,04/27.4506/2019,2000,g 15.5,4.0
# From MPEC 2023-A50
C/2019 J1 (Lemmon),e,24.5262,98.2214,167.6337,67.04802,0.0017953,0.96294179,3.5863,09/24.0/2024,2000,g 12.0,4.0
# From MPEC 2021-R75
C/2019 J2 (Palomar),e,105.2421,25.5178,98.6019,160.7163,0.0004837,0.98931483,0.0000,07/20.8551/2019,2000,g 13.0,4.0
# From MPC117071
C/2019 J3 (ATLAS),h,08/02.3386/2019,131.3029,270.6485,16.5368,1.000204,2.364431,2000,13.5,4.0
# From MPEC 2022-M21
C/2019 JU6 (ATLAS),h,06/02.7412/2019,148.3180,21.7342,94.8701,1.000008,2.036042,2000,14.5,4.0
# From MPEC 2022-O08
C/2019 K1 (ATLAS),e,87.0146,73.3081,265.7577,3850,0.0000041,0.99947583,0.0000,02/11.6628/2020,2000,g 10.0,4.0
# From MPC119997
C/2019 K4 (Ye),e,105.2941,180.2307,139.9889,1561,0.0000160,0.99854270,0.0000,06/15.2621/2019,2000,g 12.5,4.0
# From MPEC 2021-P47
C/2019 K5 (Young),e,15.3044,177.2295,175.1524,169.6013,0.0004462,0.98790721,0.0000,06/22.1425/2019,2000,g 13.0,4.0
# From MPEC 2021-P47
C/2019 K6 (PANSTARRS),e,132.3815,42.9970,187.4829,1073,0.0000280,0.99634775,0.0000,05/19.1960/2020,2000,g 11.5,4.0
# From MPEC 2024-GJ3
C/2019 K7 (Smith),h,06/17.4939/2020,103.4970,308.0154,27.3914,1.000761,4.476684,2000,6.0,4.0
# From MPEC 2021-R75
C/2019 K8 (ATLAS),e,93.0736,291.0039,85.3628,1935,0.0000116,0.99834814,0.0000,07/20.9511/2019,2000,g 11.5,4.0
# From MPEC 2023-A50
C/2019 L1 (PANSTARRS),e,9.9740,254.4272,50.0439,9.827113,0.0319937,0.70448368,59.9377,09/24.0/2024,2000,g 13.5,4.0
# From MPC115886
C/2019 L2 (NEOWISE),e,152.1811,12.5660,18.8640,25.13268,0.0078225,0.93537369,15.6521,09/24.0/2024,2000,g 16.0,4.0
# From MPEC 2024-GJ3
P/2019 LD2 (ATLAS),e,11.5994,179.2454,117.4125,5.187276,0.0834248,0.12838001,140.8325,09/24.0/2024,2000,g  8.5,4.0
# From MPEC 2024-P23
C/2019 L3 (ATLAS),h,01/09.9460/2022,48.3445,290.7352,171.6924,1.002772,3.556081,2000,4.5,4.0
# From MPEC 2020-K19
P/2019 LM4 (Palomar),e,36.4182,72.8430,68.2557,5.703353,0.0723617,0.58567495,139.2322,09/24.0/2024,2000,g  9.5,4.0
# From MPC118095
C/2019 LB7 (Kleyna),e,164.2856,3.9475,336.7151,34.93009,0.0047742,0.92854621,9.5875,09/24.0/2024,2000,g 17.0,4.0
# From MPEC 2024-Q25
P/2019 M2 (ATLAS),e,12.2662,307.6079,332.5228,3.030182,0.1868534,0.64729505,359.2177,09/24.0/2024,2000,g 17.5,4.0
# From MPC118095
C/2019 M3 (ATLAS),e,99.5996,155.0021,87.9288,4714,0.0000030,0.99948560,0.0000,12/31.2963/2018,2000,g 12.2,4.0
# From MPEC 2023-JA2
C/2019 M4 (TESS),h,09/10.8716/2019,65.6798,52.6484,260.3623,1.001575,9.190915,2000,5.0,4.0
# From MPEC 2023-C45
C/2019 N1 (ATLAS),e,82.4746,13.5440,193.3608,1059,0.0000286,0.99839042,0.0000,11/30.7352/2020,2000,g  7.5,4.0
# From MPEC 2023-CD8
A/2019 N2,e,89.3350,276.2045,347.1261,1302,0.0000210,0.99850722,0.0000,08/22.5783/2019,2000,g 12.5,2.0
# From MPEC 2022-A21
C/2019 NJ3 (Lemmon),h,10/22.6464/2020,99.3677,142.4880,246.8876,1.001808,4.363132,2000,9.0,4.0
# From MPEC 2024-R10
C/2019 O2 (PANSTARRS),e,93.3104,48.2588,129.5953,58.53058,0.0022010,0.83458327,1.1811,09/24.0/2024,2000,g  5.0,4.0
# From MPEC 2024-PC5
C/2019 O3 (Palomar),h,03/09.2483/2021,89.8051,300.4614,60.1233,1.003720,8.821289,2000,3.5,4.0
# From MPEC 2021-P47
A/2019 O4,e,115.0458,354.9287,61.8554,33.26502,0.0051372,0.89043161,8.6659,09/24.0/2024,2000,g 15.5,2.0
# From MPEC 2024-EF7
C/2019 Q1 (Lemmon),h,07/21.6912/2020,155.7294,42.4589,56.2541,1.002003,5.004901,2000,8.5,4.0
# From MPC117072
A/2019 Q2,e,159.0001,188.0708,176.4804,58.58122,0.0021982,0.97843685,0.0000,07/22.9261/2019,2000,g 18.0,2.0
# From MPC117072
P/2019 S2 (PANSTARRS),e,10.4640,93.1825,217.0352,4.746054,0.0953246,0.20484337,194.8778,09/24.0/2024,2000,g 13.5,4.0
# From MPEC 2022-CN4
P/2019 S3 (PANSTARRS),e,8.6935,150.1522,213.0814,3.414990,0.1561780,0.47090075,289.5464,09/24.0/2024,2000,g 18.3,4.0
# From MPEC 2021-S45
C/2019 S4 (Lemmon),e,92.1081,63.1584,71.3731,243.7474,0.0002590,0.98588353,0.0000,04/08.7967/2020,2000,g 11.0,4.0
# From MPEC 2023-N01
A/2019 T1,e,120.8483,6.9403,91.0260,38.82817,0.0040736,0.88983552,5.4911,09/24.0/2024,2000,g 13.0,2.0
# From MPEC 2023-R20
C/2019 T2 (Lemmon),e,111.4141,155.6565,239.4117,4611,0.0000031,0.99942650,0.0000,04/22.6695/2021,2000,g  9.0,4.0
# From MPEC 2023-UR6
C/2019 T3 (ATLAS),e,121.8544,139.5357,112.4728,3593,0.0000046,0.99834308,0.0000,03/04.4098/2021,2000,g  6.8,4.0
# From MPEC 2024-RQ6
C/2019 T4 (ATLAS),e,53.6272,199.9252,351.1180,881.3092,0.0000377,0.99518984,0.0000,06/08.6631/2022,2000,g  5.0,4.0
# From MPEC 2021-P47
P/2019 T5 (ATLAS),e,33.4991,247.6111,189.5986,8.003732,0.0435277,0.80983344,81.7899,09/24.0/2024,2000,g 15.0,4.0
# From MPEC 2021-P47
P/2019 T6 (PANSTARRS),e,18.7002,71.2437,329.0362,5.441051,0.0776569,0.62285057,138.3005,09/24.0/2024,2000,g 15.5,4.0
# From MPC118096
P/2019 U4 (PANSTARRS),e,11.6968,200.0139,181.0599,3.519446,0.1492769,0.47589417,273.2071,09/24.0/2024,2000,g 19.0,4.0
# From MPEC 2024-RQ6
C/2019 U5 (PANSTARRS),h,03/29.6281/2023,113.5131,2.6268,181.4614,1.000648,3.623860,2000,4.5,4.0
# From MPEC 2022-H04
C/2019 U6 (Lemmon),e,60.9672,235.7863,329.4686,312.1020,0.0001788,0.99708611,0.0000,06/18.2525/2020,2000,g 10.0,4.0
# From MPEC 2022-N37
C/2019 V1 (Borisov),e,61.9447,83.1488,51.1764,2032,0.0000108,0.99847805,0.0000,07/17.0513/2020,2000,g 11.0,4.0
# From MPEC 2022-L66
P/2019 V2 (Groeller),e,11.8070,189.1632,335.6292,7.495012,0.0480337,0.33151917,69.0843,09/24.0/2024,2000,g 10.0,4.0
# From MPEC 2023-A50
P/2019 W1 (PANSTARRS),e,23.4720,35.3728,18.8318,4.548657,0.1015966,0.26730357,199.4221,09/24.0/2024,2000,g 12.9,4.0
# From MPEC 2021-P47
P/2019 X1 (Pruyne),e,10.2490,43.6798,36.9021,6.177148,0.0641981,0.30396977,121.2764,09/24.0/2024,2000,g 10.4,4.0
# From MPEC 2020-C98
P/2019 X2 (Pan-STARRS),e,15.8953,250.8400,213.4712,3.635245,0.1422013,0.50029772,248.7530,09/24.0/2024,2000,g 18.0,4.0
# From MPC119999
C/2019 Y1 (ATLAS),e,73.3479,31.5222,57.9067,87.66753,0.0012007,0.99056559,0.0000,03/16.7821/2020,2000,g 13.7,4.0
# From MPEC 2020-K19
P/2019 Y2 (Fuls),e,4.8766,80.2422,93.3515,3.488237,0.1512847,0.37649801,258.6276,09/24.0/2024,2000,g  9.0,4.0
# From MPEC 2020-C98
P/2019 Y3 (Catalina),e,24.5977,139.2928,2.5689,3.015408,0.1882283,0.69115597,329.8505,09/24.0/2024,2000,g 18.5,4.0
# From MPEC 2024-A43
C/2019 Y4 (ATLAS),e,45.0245,120.7518,177.4318,345.0389,0.0001538,0.99925579,0.0000,05/30.2562/2020,2000,g 11.8,6.0
# From MPEC 2020-L06
C/2019 Y4-A (ATLAS),h,05/30.2971/2020,45.4623,121.1172,177.2650,1.001395,0.254940,2000,11.6,6.0
# From MPEC 2023-J29
C/2019 Y4-B (ATLAS),e,45.1538,120.8592,177.3760,20931,0.0000003,0.99998776,0.0000,05/30.2668/2020,2000,g 12.1,6.0
# From MPEC 2020-L06
C/2019 Y4-C (ATLAS),h,05/30.2492/2020,45.2455,120.8444,177.2981,1.002122,0.256015,2000,12.7,6.0
# From MPEC 2020-L06
C/2019 Y4-D (ATLAS),e,45.2955,121.2102,177.4386,67.86083,0.0017631,0.99623758,0.0000,05/30.3621/2020,2000,g 12.5,6.0
# From MPEC 2023-A50
C/2019 Y5 (PANSTARRS),e,82.7628,51.7520,303.6291,705.1048,0.0000526,0.99301011,0.0000,08/17.1395/2019,2000,g 11.0,4.0
# From MPEC 2023-A50
A/2020 A1,e,149.0324,119.1098,302.4126,25.49845,0.0076548,0.93457686,13.4640,09/24.0/2024,2000,g 18.0,2.0
# From MPEC 2022-YN2
C/2020 A2 (Iwamoto),e,120.5376,286.2195,68.0225,1088,0.0000275,0.99910491,0.0000,01/07.8717/2020,2000,g 13.5,4.0
# From MPEC 2023-A50
C/2020 A3 (ATLAS),e,146.6353,120.8026,268.2758,17768,0.0000004,0.99967615,0.0000,06/27.9414/2019,2000,g  8.0,4.0
# From MPEC 2022-P91
P/2020 A4 (PANSTARRS-Lemmon),e,24.9967,312.3173,144.8350,8.198585,0.0419852,0.65443878,74.1472,09/24.0/2024,2000,g 15.0,4.0
# From MPEC 2020-N08
A/2020 B1,e,18.5312,309.8605,154.7987,51.79964,0.0026437,0.96644055,4.5810,09/24.0/2024,2000,g 21.0,2.0
# From MPEC 2020-HN5
C/2020 B2 (Lemmon),e,55.7524,354.2365,143.5972,67.70758,0.0017691,0.95928136,3.0110,09/24.0/2024,2000,g 10.0,4.0
# From MPEC 2022-N37
C/2020 B3 (Rankin),e,20.7075,185.7982,324.8887,972.8448,0.0000325,0.99657752,0.0000,10/20.1260/2019,2000,g 13.0,4.0
# From MPEC 2023-KD6
P/2020 B4 (Sheppard),e,11.6057,185.9666,341.9874,7.969701,0.0438067,0.19243810,45.5923,09/24.0/2024,2000,g 10.5,4.0
# From MPEC 2024-PC5
C/2020 F2 (ATLAS),h,07/13.3634/2022,163.5896,250.3042,48.2694,1.003908,8.814328,2000,4.5,4.0
# From MPEC 2021-O56
C/2020 F3 (NEOWISE),e,129.1538,61.0972,37.3852,388.9078,0.0001285,0.99924259,0.0000,07/04.4329/2020,2000,g  7.5,5.2
# From MPEC 2024-BE0
C/2020 F5 (MASTER),e,52.2171,350.5151,310.6612,167.7149,0.0004538,0.97420092,0.0000,03/16.6828/2021,2000,g  6.5,3.2
# From MPEC 2020-L06
C/2020 F6 (PANSTARRS),e,174.5834,207.8765,344.4120,363.1283,0.0001424,0.99036299,0.0000,04/11.1066/2020,2000,g 14.5,2.8
# From MPEC 2024-A43
C/2020 F7 (Lemmon),e,93.9666,321.8395,227.9579,554.6931,0.0000754,0.99038514,0.0000,11/13.6472/2021,2000,g  7.0,4.0
# From MPEC 2023-J29
C/2020 F8 (SWAN),h,05/26.4837/2020,110.5581,259.8046,68.0793,1.000106,0.430959,2000,10.0,4.0
# From MPEC 2020-L06
P/2020 G1 (Pimentel),e,18.5116,240.1108,207.6242,3.607336,0.1438548,0.86075215,237.4096,09/24.0/2024,2000,g 17.0,4.0
# From MPEC 2022-YB4
C/2020 H2 (Pruyne),e,124.8074,277.6714,26.6096,182.0448,0.0004013,0.99544587,0.0000,04/27.4721/2020,2000,g 14.0,3.2
# From MPEC 2020-HM1
C/2020 H3 (Wierzchos),p,06/05.7162/2020,62.5292,30.4456,2.300288,270.6227,2000,13.5,4.0
# From MPEC 2020-L06
C/2020 H4 (Leonard),e,84.4951,307.5318,117.5358,47.81881,0.0029806,0.98064836,0.0000,08/29.4987/2020,2000,g 15.0,3.2
# From MPEC 2024-P23
C/2020 H5 (Robinson),e,70.2464,210.6241,326.2803,4955,0.0000028,0.99811545,0.0000,12/10.0165/2020,2000,g  5.0,4.0
# From MPEC 2024-JU4
C/2020 H6 (ATLAS),e,79.9801,213.7116,20.2291,2572,0.0000076,0.99817318,0.0000,09/29.9592/2021,2000,g  8.0,3.2
# From MPEC 2020-KB7
C/2020 H7 (Lemmon),e,135.9235,323.5194,82.6780,1405,0.0000187,0.99685380,0.0000,06/02.9510/2020,2000,g 11.0,4.0
# From MPEC 2021-N06
